{
  "type": "FeatureCollection",
  "features": [
    {
      "type": "Feature",
      "properties": {
        "norad_id": 30940,
        "name": "FENGYUN 1C DEB",
        "group": "fengyun-1c-debris",
        "lat": -79.01539875125687,
        "lon": 51.34900195130155,
        "alt_km": 852.8854680232935,
        "timestamp": "2025-12-26T04:40:06.066221+00:00",
        "meta_object_name": "FENGYUN 1C DEB",
        "meta_object_id": "1999-025BAE",
        "meta_epoch": "2025-12-22T05:52:00.054912",
        "meta_mean_motion": 14.08319135,
        "meta_eccentricity": 0.00407229,
        "meta_inclination": 98.6214,
        "meta_ra_of_asc_node": 356.1653,
        "meta_arg_of_pericenter": 336.7041,
        "meta_mean_anomaly": 84.9821,
        "meta_ephemeris_type": 0,
        "meta_classification_type": "U",
        "meta_norad_cat_id": 30940,
        "meta_element_set_no": 999,
        "meta_rev_at_epoch": 96266,
        "meta_bstar": 0.00045494688,
        "meta_mean_motion_dot": 7.42e-06,
        "meta_mean_motion_ddot": 0,
        "tle_line1": "1 30940U 99025BAE 25356.24444508  .00000742  00000+0  45495-3 0  9995",
        "tle_line2": "2 30940  98.6214 356.1653 0040722 336.7041  84.9821 14.08319135962662"
      },
      "geometry": {
        "type": "Point",
        "coordinates": [
          51.34900195130155,
          -79.01539875125687
        ]
      }
    },
    {
      "type": "Feature",
      "properties": {
        "norad_id": 30941,
        "name": "FENGYUN 1C DEB",
        "group": "fengyun-1c-debris",
        "lat": 36.41165673990079,
        "lon": -149.57329694568125,
        "alt_km": 796.7649769251357,
        "timestamp": "2025-12-26T04:40:06.066232+00:00",
        "meta_object_name": "FENGYUN 1C DEB",
        "meta_object_id": "1999-025BAF",
        "meta_epoch": "2025-12-25T13:23:42.379296",
        "meta_mean_motion": 14.31159802,
        "meta_eccentricity": 0.0033338,
        "meta_inclination": 98.5451,
        "meta_ra_of_asc_node": 216.1679,
        "meta_arg_of_pericenter": 279.8677,
        "meta_mean_anomaly": 79.8743,
        "meta_ephemeris_type": 0,
        "meta_classification_type": "U",
        "meta_norad_cat_id": 30941,
        "meta_element_set_no": 999,
        "meta_rev_at_epoch": 96809,
        "meta_bstar": 0.0019943,
        "meta_mean_motion_dot": 5.255e-05,
        "meta_mean_motion_ddot": 0,
        "tle_line1": "1 30941U 99025BAF 25359.55812939  .00005255  00000+0  19943-2 0  9992",
        "tle_line2": "2 30941  98.5451 216.1679 0033338 279.8677  79.8743 14.31159802968093"
      },
      "geometry": {
        "type": "Point",
        "coordinates": [
          -149.57329694568125,
          36.41165673990079
        ]
      }
    },
    {
      "type": "Feature",
      "properties": {
        "norad_id": 30942,
        "name": "FENGYUN 1C DEB",
        "group": "fengyun-1c-debris",
        "lat": -23.58575231313349,
        "lon": 1.8937560890120368,
        "alt_km": 850.0646935050017,
        "timestamp": "2025-12-26T04:40:06.066242+00:00",
        "meta_object_name": "FENGYUN 1C DEB",
        "meta_object_id": "1999-025BAG",
        "meta_epoch": "2025-12-25T19:10:29.152992",
        "meta_mean_motion": 14.14850693,
        "meta_eccentricity": 0.01380044,
        "meta_inclination": 98.68,
        "meta_ra_of_asc_node": 357.6848,
        "meta_arg_of_pericenter": 69.2087,
        "meta_mean_anomaly": 54.9376,
        "meta_ephemeris_type": 0,
        "meta_classification_type": "U",
        "meta_norad_cat_id": 30942,
        "meta_element_set_no": 999,
        "meta_rev_at_epoch": 96829,
        "meta_bstar": 0.00024439491,
        "meta_mean_motion_dot": 4.75e-06,
        "meta_mean_motion_ddot": 0,
        "tle_line1": "1 30942U 99025BAG 25359.79894853  .00000475  00000+0  24439-3 0  9990",
        "tle_line2": "2 30942  98.6800 357.6848 0138004  69.2087  54.9376 14.14850693968299"
      },
      "geometry": {
        "type": "Point",
        "coordinates": [
          1.8937560890120368,
          -23.58575231313349
        ]
      }
    },
    {
      "type": "Feature",
      "properties": {
        "norad_id": 30943,
        "name": "FENGYUN 1C DEB",
        "group": "fengyun-1c-debris",
        "lat": 3.995394641851703,
        "lon": -165.6844365973246,
        "alt_km": 911.4406849043426,
        "timestamp": "2025-12-26T04:40:06.066252+00:00",
        "meta_object_name": "FENGYUN 1C DEB",
        "meta_object_id": "1999-025BAH",
        "meta_epoch": "2025-12-25T00:28:51.301344",
        "meta_mean_motion": 14.04501056,
        "meta_eccentricity": 0.00506295,
        "meta_inclination": 98.7973,
        "meta_ra_of_asc_node": 12.558,
        "meta_arg_of_pericenter": 31.9119,
        "meta_mean_anomaly": 328.5099,
        "meta_ephemeris_type": 0,
        "meta_classification_type": "U",
        "meta_norad_cat_id": 30943,
        "meta_element_set_no": 999,
        "meta_rev_at_epoch": 95914,
        "meta_bstar": 0.00018368177,
        "meta_mean_motion_dot": 2.54e-06,
        "meta_mean_motion_ddot": 0,
        "tle_line1": "1 30943U 99025BAH 25359.02003821  .00000254  00000+0  18368-3 0  9993",
        "tle_line2": "2 30943  98.7973  12.5580 0050629  31.9119 328.5099 14.04501056959141"
      },
      "geometry": {
        "type": "Point",
        "coordinates": [
          -165.6844365973246,
          3.995394641851703
        ]
      }
    },
    {
      "type": "Feature",
      "properties": {
        "norad_id": 30944,
        "name": "FENGYUN 1C DEB",
        "group": "fengyun-1c-debris",
        "lat": 20.821851952687457,
        "lon": -119.97989834667985,
        "alt_km": 731.900973159718,
        "timestamp": "2025-12-26T04:40:06.066262+00:00",
        "meta_object_name": "FENGYUN 1C DEB",
        "meta_object_id": "1999-025BAJ",
        "meta_epoch": "2025-12-21T22:15:45.159264",
        "meta_mean_motion": 14.52456444,
        "meta_eccentricity": 0.01492776,
        "meta_inclination": 98.849,
        "meta_ra_of_asc_node": 52.1254,
        "meta_arg_of_pericenter": 73.0628,
        "meta_mean_anomaly": 105.9233,
        "meta_ephemeris_type": 0,
        "meta_classification_type": "U",
        "meta_norad_cat_id": 30944,
        "meta_element_set_no": 999,
        "meta_rev_at_epoch": 99209,
        "meta_bstar": 0.00012945518,
        "meta_mean_motion_dot": 5.54e-06,
        "meta_mean_motion_ddot": 0,
        "tle_line1": "1 30944U 99025BAJ 25355.92760601  .00000554  00000+0  12946-3 0  9994",
        "tle_line2": "2 30944  98.8490  52.1254 0149277  73.0628 105.9233 14.52456444992096"
      },
      "geometry": {
        "type": "Point",
        "coordinates": [
          -119.97989834667985,
          20.821851952687457
        ]
      }
    },
    {
      "type": "Feature",
      "properties": {
        "norad_id": 30945,
        "name": "FENGYUN 1C DEB",
        "group": "fengyun-1c-debris",
        "lat": -69.26921206931675,
        "lon": 163.976644526594,
        "alt_km": 806.4714626375153,
        "timestamp": "2025-12-26T04:40:06.066272+00:00",
        "meta_object_name": "FENGYUN 1C DEB",
        "meta_object_id": "1999-025BAK",
        "meta_epoch": "2025-12-23T19:13:25.802112",
        "meta_mean_motion": 14.29800555,
        "meta_eccentricity": 0.0030348,
        "meta_inclination": 99.3905,
        "meta_ra_of_asc_node": 7.3251,
        "meta_arg_of_pericenter": 6.9544,
        "meta_mean_anomaly": 171.4141,
        "meta_ephemeris_type": 0,
        "meta_classification_type": "U",
        "meta_norad_cat_id": 30945,
        "meta_element_set_no": 999,
        "meta_rev_at_epoch": 96595,
        "meta_bstar": 0.0016300295,
        "meta_mean_motion_dot": 4.161e-05,
        "meta_mean_motion_ddot": 0,
        "tle_line1": "1 30945U 99025BAK 25357.80099308  .00004161  00000+0  16300-2 0  9998",
        "tle_line2": "2 30945  99.3905   7.3251 0030348   6.9544 171.4141 14.29800555965954"
      },
      "geometry": {
        "type": "Point",
        "coordinates": [
          163.976644526594,
          -69.26921206931675
        ]
      }
    },
    {
      "type": "Feature",
      "properties": {
        "norad_id": 30946,
        "name": "FENGYUN 1C DEB",
        "group": "fengyun-1c-debris",
        "lat": 15.994990666592713,
        "lon": 113.70053608383371,
        "alt_km": 778.1590294857333,
        "timestamp": "2025-12-26T04:40:06.066282+00:00",
        "meta_object_name": "FENGYUN 1C DEB",
        "meta_object_id": "1999-025BAL",
        "meta_epoch": "2025-12-23T07:12:30.483648",
        "meta_mean_motion": 14.48204965,
        "meta_eccentricity": 0.00896134,
        "meta_inclination": 99.0402,
        "meta_ra_of_asc_node": 113.2219,
        "meta_arg_of_pericenter": 161.5838,
        "meta_mean_anomaly": 255.1727,
        "meta_ephemeris_type": 0,
        "meta_classification_type": "U",
        "meta_norad_cat_id": 30946,
        "meta_element_set_no": 999,
        "meta_rev_at_epoch": 98504,
        "meta_bstar": 0.00071944578,
        "meta_mean_motion_dot": 2.77e-05,
        "meta_mean_motion_ddot": 0,
        "tle_line1": "1 30946U 99025BAL 25357.30035282  .00002770  00000+0  71945-3 0  9996",
        "tle_line2": "2 30946  99.0402 113.2219 0089613 161.5838 255.1727 14.48204965985044"
      },
      "geometry": {
        "type": "Point",
        "coordinates": [
          113.70053608383371,
          15.994990666592713
        ]
      }
    }
  ]
}